*******************************************************************************
Ephemeris / WWW_USER Mon Jul 15 19:33:44 2024 Pasadena, USA      / Horizons    
*******************************************************************************
Target body name: (2015 BP519)                    {source: JPL#11}
Center body name: Earth (399)                     {source: DE441}
Center-site name: Gemini South Obs., Cerro Pachon
*******************************************************************************
Start time      : A.D. 2018-Dec-19 23:52:00.0000 UT      
Stop  time      : A.D. 2018-Dec-20 09:28:00.0000 UT      
Step-size       : 1 minutes
*******************************************************************************
Target pole/equ : undefined
Target radii    : undefined                                                    
Center geodetic : 289.2634, -30.2406227, 2.71233  {E-lon(deg),Lat(deg),Alt(km)}
Center cylindric: 289.2634,5517.21435,-3194.81213 {E-lon(deg),Dxy(km),Dz(km)}
Center pole/equ : ITRF93                          {East-longitude positive}
Center radii    : 6378.137, 6378.137, 6356.752 km {Equator_a, b, pole_c}       
Target primary  : Sun
Vis. interferer : MOON (R_eq= 1737.400) km        {source: DE441}
Rel. light bend : Sun                             {source: DE441}
Rel. lght bnd GM: 1.3271E+11 km^3/s^2                                          
Small-body perts: Yes                             {source: SB441-N16}
Atmos refraction: NO (AIRLESS)
RA format       : HMS
Time format     : CAL 
Calendar mode   : Mixed Julian/Gregorian
RTS-only print  : NO       
EOP file        : eop.240715.p241008                                           
EOP coverage    : DATA-BASED 1962-JAN-20 TO 2024-JUL-15. PREDICTS-> 2024-OCT-07
Units conversion: 1 au= 149597870.700 km, c= 299792.458 km/s, 1 day= 86400.0 s 
Table cut-offs 1: Elevation (-90.0deg=NO ),Airmass (>38.000=NO), Daylight (YES)
Table cut-offs 2: Solar elongation (  0.0,180.0=NO ),Local Hour Angle( 0.0=NO )
Table cut-offs 3: RA/DEC angular rate (     0.0=NO )                           
*******************************************************************************
Initial IAU76/J2000 heliocentric ecliptic osculating elements (au, days, deg.):
  EPOCH=  2459185.5 ! 2020-Dec-02.00 (TDB)         Residual RMS= .076636       
   EC= .9196800569382362   QR= 35.27062259520413   TP= 2473034.2681888649      
   OM= 135.0361763364557   W=  348.1354702472351   IN= 54.13300168900849       
  Equivalent ICRF heliocentric cartesian coordinates (au, au/d):
   X= 1.527332710437156E+01  Y= 4.057000090505051E+01  Z=-2.695001507835700E+01
  VX=-2.654302427537234E-03 VY= 4.512065776218028E-05 VZ= 1.968031006040699E-03
Asteroid physical parameters (km, seconds, rotational period in hours):        
   GM= n.a.                RAD= n.a.               ROTPER= n.a.                
   H= 4.34                 G= .150                 B-V= n.a.                   
                           ALBEDO= n.a.            STYP= n.a.                  
*******************************************************************************
 Date__(UT)__HR:MN     R.A._________(ICRF)_________DEC
******************************************************
$$SOE
 2018-Dec-20 03:58  m  04 26 30.404567 -33 39 01.15898
 2018-Dec-20 03:59  m  04 26 30.401467 -33 39 01.14655
 2018-Dec-20 04:00  m  04 26 30.398367 -33 39 01.13411
 2018-Dec-20 04:01  m  04 26 30.395268 -33 39 01.12167
 2018-Dec-20 04:02  m  04 26 30.392168 -33 39 01.10923
 2018-Dec-20 04:03  m  04 26 30.389068 -33 39 01.09679
 2018-Dec-20 04:04  m  04 26 30.385969 -33 39 01.08435
 2018-Dec-20 04:05  m  04 26 30.382869 -33 39 01.07190
 2018-Dec-20 04:06  m  04 26 30.379770 -33 39 01.05946
 2018-Dec-20 04:07  m  04 26 30.376671 -33 39 01.04701
 2018-Dec-20 04:08  m  04 26 30.373571 -33 39 01.03456
 2018-Dec-20 04:09  m  04 26 30.370472 -33 39 01.02210
 2018-Dec-20 04:10  m  04 26 30.367373 -33 39 01.00965
 2018-Dec-20 04:11  m  04 26 30.364274 -33 39 00.99719
 2018-Dec-20 04:12  m  04 26 30.361175 -33 39 00.98473
 2018-Dec-20 04:13  m  04 26 30.358076 -33 39 00.97227
 2018-Dec-20 04:14  m  04 26 30.354977 -33 39 00.95980
 2018-Dec-20 04:15  m  04 26 30.351878 -33 39 00.94734
 2018-Dec-20 04:16  m  04 26 30.348780 -33 39 00.93487
 2018-Dec-20 04:17  m  04 26 30.345681 -33 39 00.92240
 2018-Dec-20 04:18  m  04 26 30.342582 -33 39 00.90993
 2018-Dec-20 04:19  m  04 26 30.339484 -33 39 00.89746
 2018-Dec-20 04:20  m  04 26 30.336385 -33 39 00.88498
 2018-Dec-20 04:21  m  04 26 30.333287 -33 39 00.87251
 2018-Dec-20 04:22  m  04 26 30.330189 -33 39 00.86003
 2018-Dec-20 04:23  m  04 26 30.327091 -33 39 00.84755
 2018-Dec-20 04:24  m  04 26 30.323993 -33 39 00.83506
 2018-Dec-20 04:25  m  04 26 30.320895 -33 39 00.82258
 2018-Dec-20 04:26  m  04 26 30.317797 -33 39 00.81009
 2018-Dec-20 04:27  m  04 26 30.314699 -33 39 00.79760
 2018-Dec-20 04:28  m  04 26 30.311601 -33 39 00.78511
 2018-Dec-20 04:29  m  04 26 30.308503 -33 39 00.77262
 2018-Dec-20 04:30  m  04 26 30.305406 -33 39 00.76012
 2018-Dec-20 04:31  m  04 26 30.302308 -33 39 00.74763
 2018-Dec-20 04:32  m  04 26 30.299211 -33 39 00.73513
 2018-Dec-20 04:33  m  04 26 30.296113 -33 39 00.72263
 2018-Dec-20 04:34  m  04 26 30.293016 -33 39 00.71012
 2018-Dec-20 04:35  m  04 26 30.289919 -33 39 00.69762
 2018-Dec-20 04:36  m  04 26 30.286822 -33 39 00.68511
 2018-Dec-20 04:37  m  04 26 30.283725 -33 39 00.67261
 2018-Dec-20 04:38  m  04 26 30.280628 -33 39 00.66009
 2018-Dec-20 04:39  m  04 26 30.277531 -33 39 00.64758
 2018-Dec-20 04:40  m  04 26 30.274435 -33 39 00.63507
 2018-Dec-20 04:41  m  04 26 30.271338 -33 39 00.62255
 2018-Dec-20 04:42  m  04 26 30.268242 -33 39 00.61003
 2018-Dec-20 04:43  m  04 26 30.265145 -33 39 00.59751
 2018-Dec-20 04:44  m  04 26 30.262049 -33 39 00.58499
 2018-Dec-20 04:45  m  04 26 30.258953 -33 39 00.57247
 2018-Dec-20 04:46  m  04 26 30.255857 -33 39 00.55994
 2018-Dec-20 04:47  m  04 26 30.252761 -33 39 00.54742
 2018-Dec-20 04:48  m  04 26 30.249665 -33 39 00.53489
 2018-Dec-20 04:49  m  04 26 30.246569 -33 39 00.52235
 2018-Dec-20 04:50  m  04 26 30.243474 -33 39 00.50982
 2018-Dec-20 04:51  m  04 26 30.240378 -33 39 00.49729
 2018-Dec-20 04:52  m  04 26 30.237283 -33 39 00.48475
 2018-Dec-20 04:53  m  04 26 30.234187 -33 39 00.47221
 2018-Dec-20 04:54  m  04 26 30.231092 -33 39 00.45967
 2018-Dec-20 04:55  m  04 26 30.227997 -33 39 00.44713
 2018-Dec-20 04:56  m  04 26 30.224902 -33 39 00.43458
 2018-Dec-20 04:57  m  04 26 30.221807 -33 39 00.42203
 2018-Dec-20 04:58  m  04 26 30.218712 -33 39 00.40949
 2018-Dec-20 04:59  m  04 26 30.215618 -33 39 00.39694
 2018-Dec-20 05:00  m  04 26 30.212523 -33 39 00.38438
 2018-Dec-20 05:01  m  04 26 30.209429 -33 39 00.37183
 2018-Dec-20 05:02  m  04 26 30.206334 -33 39 00.35927
 2018-Dec-20 05:03  m  04 26 30.203240 -33 39 00.34672
 2018-Dec-20 05:04  m  04 26 30.200146 -33 39 00.33416
 2018-Dec-20 05:05  m  04 26 30.197052 -33 39 00.32159
 2018-Dec-20 05:06  m  04 26 30.193958 -33 39 00.30903
 2018-Dec-20 05:07  m  04 26 30.190864 -33 39 00.29647
 2018-Dec-20 05:08  m  04 26 30.187771 -33 39 00.28390
 2018-Dec-20 05:09  m  04 26 30.184677 -33 39 00.27133
 2018-Dec-20 05:10  m  04 26 30.181584 -33 39 00.25876
 2018-Dec-20 05:11  m  04 26 30.178491 -33 39 00.24619
 2018-Dec-20 05:12  m  04 26 30.175398 -33 39 00.23361
 2018-Dec-20 05:13  m  04 26 30.172305 -33 39 00.22104
 2018-Dec-20 05:14  m  04 26 30.169212 -33 39 00.20846
 2018-Dec-20 05:15  m  04 26 30.166119 -33 39 00.19588
 2018-Dec-20 05:16  m  04 26 30.163027 -33 39 00.18330
 2018-Dec-20 05:17  m  04 26 30.159934 -33 39 00.17071
 2018-Dec-20 05:18  m  04 26 30.156842 -33 39 00.15813
 2018-Dec-20 05:19  m  04 26 30.153749 -33 39 00.14554
 2018-Dec-20 05:20  m  04 26 30.150657 -33 39 00.13295
 2018-Dec-20 05:21  m  04 26 30.147565 -33 39 00.12036
 2018-Dec-20 05:22  m  04 26 30.144474 -33 39 00.10777
 2018-Dec-20 05:23  m  04 26 30.141382 -33 39 00.09517
 2018-Dec-20 05:24  m  04 26 30.138290 -33 39 00.08258
 2018-Dec-20 05:25  m  04 26 30.135199 -33 39 00.06998
 2018-Dec-20 05:26  m  04 26 30.132108 -33 39 00.05738
 2018-Dec-20 05:27  m  04 26 30.129017 -33 39 00.04478
 2018-Dec-20 05:28  m  04 26 30.125926 -33 39 00.03217
 2018-Dec-20 05:29  m  04 26 30.122835 -33 39 00.01957
 2018-Dec-20 05:30  m  04 26 30.119744 -33 39 00.00696
 2018-Dec-20 05:31  m  04 26 30.116653 -33 38 59.99435
 2018-Dec-20 05:32  m  04 26 30.113563 -33 38 59.98174
 2018-Dec-20 05:33  m  04 26 30.110473 -33 38 59.96913
 2018-Dec-20 05:34  m  04 26 30.107383 -33 38 59.95652
 2018-Dec-20 05:35  m  04 26 30.104293 -33 38 59.94390
 2018-Dec-20 05:36  m  04 26 30.101203 -33 38 59.93128
 2018-Dec-20 05:37  m  04 26 30.098113 -33 38 59.91867
 2018-Dec-20 05:38  m  04 26 30.095023 -33 38 59.90604
 2018-Dec-20 05:39  m  04 26 30.091934 -33 38 59.89342
 2018-Dec-20 05:40  m  04 26 30.088845 -33 38 59.88080
 2018-Dec-20 05:41  m  04 26 30.085756 -33 38 59.86817
 2018-Dec-20 05:42  m  04 26 30.082667 -33 38 59.85554
 2018-Dec-20 05:43  m  04 26 30.079578 -33 38 59.84291
 2018-Dec-20 05:44  m  04 26 30.076489 -33 38 59.83028
 2018-Dec-20 05:45  m  04 26 30.073401 -33 38 59.81765
 2018-Dec-20 05:46  m  04 26 30.070312 -33 38 59.80501
 2018-Dec-20 05:47  m  04 26 30.067224 -33 38 59.79238
 2018-Dec-20 05:48  m  04 26 30.064136 -33 38 59.77974
 2018-Dec-20 05:49  m  04 26 30.061048 -33 38 59.76710
 2018-Dec-20 05:50  m  04 26 30.057960 -33 38 59.75446
 2018-Dec-20 05:51  m  04 26 30.054873 -33 38 59.74181
 2018-Dec-20 05:52  m  04 26 30.051785 -33 38 59.72917
 2018-Dec-20 05:53  m  04 26 30.048698 -33 38 59.71652
 2018-Dec-20 05:54  m  04 26 30.045611 -33 38 59.70388
 2018-Dec-20 05:55  m  04 26 30.042524 -33 38 59.69123
 2018-Dec-20 05:56  m  04 26 30.039437 -33 38 59.67857
 2018-Dec-20 05:57  m  04 26 30.036351 -33 38 59.66592
 2018-Dec-20 05:58  m  04 26 30.033264 -33 38 59.65327
 2018-Dec-20 05:59  m  04 26 30.030178 -33 38 59.64061
 2018-Dec-20 06:00  m  04 26 30.027092 -33 38 59.62795
